{
    "links": {
        "self": "http://www.neowsapp.com/rest/v1/neo/54076352?api_key=iIulBulltgU6a56xZRHN4H3l9WmuAYTsLGpBGhQ2"
    },
    "id": "54076352",
    "neo_reference_id": "54076352",
    "name": "(2020 UU4)",
    "designation": "2020 UU4",
    "nasa_jpl_url": "http://ssd.jpl.nasa.gov/sbdb.cgi?sstr=54076352",
    "absolute_magnitude_h": 26.8,
    "estimated_diameter": {
        "kilometers": {
            "estimated_diameter_min": 0.0116025908,
            "estimated_diameter_max": 0.0259441818
        },
        "meters": {
            "estimated_diameter_min": 11.6025908209,
            "estimated_diameter_max": 25.9441817907
        },
        "miles": {
            "estimated_diameter_min": 0.0072095135,
            "estimated_diameter_max": 0.0161209622
        },
        "feet": {
            "estimated_diameter_min": 38.066244069,
            "estimated_diameter_max": 85.1187093863
        }
    },
    "is_potentially_hazardous_asteroid": false,
    "close_approach_data": [
        {
            "close_approach_date": "2020-10-26",
            "close_approach_date_full": "2020-Oct-26 18:55",
            "epoch_date_close_approach": 1603738500000,
            "relative_velocity": {
                "kilometers_per_second": "11.6410281143",
                "kilometers_per_hour": "41907.7012113853",
                "miles_per_hour": "26039.8157888188"
            },
            "miss_distance": {
                "astronomical": "0.0048372775",
                "lunar": "1.8817009475",
                "kilometers": "723646.410598925",
                "miles": "449653.028858165"
            },
            "orbiting_body": "Moon"
        },
        {
            "close_approach_date": "2020-10-27",
            "close_approach_date_full": "2020-Oct-27 03:33",
            "epoch_date_close_approach": 1603769580000,
            "relative_velocity": {
                "kilometers_per_second": "11.0900372892",
                "kilometers_per_hour": "39924.1342410034",
                "miles_per_hour": "24807.304412139"
            },
            "miss_distance": {
                "astronomical": "0.0047501397",
                "lunar": "1.8478043433",
                "kilometers": "710610.781322439",
                "miles": "441553.0644260982"
            },
            "orbiting_body": "Earth"
        }
    ],
    "orbital_data": {
        "orbit_id": "3",
        "orbit_determination_date": "2020-10-27 07:16:07",
        "first_observation_date": "2020-10-23",
        "last_observation_date": "2020-10-26",
        "data_arc_in_days": 3,
        "observations_used": 34,
        "orbit_uncertainty": "7",
        "minimum_orbit_intersection": ".00397932",
        "jupiter_tisserand_invariant": "4.085",
        "epoch_osculation": "2459000.5",
        "eccentricity": ".491227282616533",
        "semi_major_axis": "1.679778908996415",
        "inclination": "4.367070363635465",
        "ascending_node_longitude": "216.6284719911381",
        "orbital_period": "795.2004422496719",
        "perihelion_distance": ".8546256801335418",
        "perihelion_argument": "231.7196710136704",
        "aphelion_distance": "2.504932137859289",
        "perihelion_time": "2459189.394281373581",
        "mean_anomaly": "274.4845278228123",
        "mean_motion": ".4527160460091514",
        "equinox": "J2000",
        "orbit_class": {
            "orbit_class_type": "APO",
            "orbit_class_description": "Near-Earth asteroid orbits which cross the Earth’s orbit similar to that of 1862 Apollo",
            "orbit_class_range": "a (semi-major axis) > 1.0 AU; q (perihelion) < 1.017 AU"
        }
    },
    "is_sentry_object": false
}